A/2018 W3,e,104.8212,251.6738,313.9648,697.9258,0.0000535,0.99385274,0.0000,04/13.0684/2021,2000,g 10.5,2.0
# From MPC119996
C/2018 X2 (Fitzsimmons),e,23.0735,340.8016,161.9470,139.5289,0.0005980,0.98480536,0.0000,07/08.3056/2019,2000,g 12.0,4.0
# From MPC114604
C/2018 X3 (PANSTARRS),e,43.4126,78.8217,359.7529,12.37637,0.0226368,0.78256373,35.0362,03/28.0/2023,2000,g 14.5,4.0
# From MPC118842
C/2018 Y1 (Iwamoto),e,160.4133,147.4789,357.9084,129.9797,0.0006651,0.99012195,0.0000,02/05.7876/2019,2000,g 11.5,4.0
# From MPC114605
P/2018 Y2 (Africano),e,11.6847,297.2008,162.2461,7.453351,0.0484369,0.47929481,74.8861,03/28.0/2023,2000,g 11.5,4.0
# From MPC114605
P/2019 A1 (PANSTARRS),e,13.7524,312.2597,150.7111,5.116154,0.0851704,0.56920261,138.7246,03/28.0/2023,2000,g 16.0,4.0
# From MPEC 2021-P47
P/2019 A2 (ATLAS),e,14.8613,139.4438,323.8543,5.713799,0.0721633,0.38220766,114.6205,03/28.0/2023,2000,g 10.5,4.0
# From MPEC 2022-M21
P/2019 A3 (PANSTARRS),e,15.3751,31.2939,325.6675,3.144150,0.1767865,0.26608430,299.7973,03/28.0/2023,2000,g 16.0,4.0
# From MPEC 2022-L66
P/2019 A4 (PANSTARRS),e,13.3063,119.2431,343.0229,2.613473,0.2332797,0.08711201,5.7551,03/28.0/2023,2000,g 15.0,4.0
# From MPEC 2021-P47
C/2019 A5 (PANSTARRS),e,67.5521,146.6048,355.8017,21.48778,0.0098950,0.70613792,13.7577,03/28.0/2023,2000,g  9.5,4.0
# From MPC114605
P/2019 A6 (Lemmon-PANSTARRS),e,33.2681,280.1950,156.1927,5.357696,0.0794762,0.63992697,132.7877,03/28.0/2023,2000,g 16.0,4.0
# From MPC115884
P/2019 A8 (PANSTARRS),e,2.1845,114.0723,65.9388,4.294102,0.1107632,0.23694530,191.3075,03/28.0/2023,2000,g 16.0,4.0
# From MPC118842
C/2019 A9 (PANSTARRS),e,84.2580,278.4099,237.9201,39.14149,0.0040248,0.96344663,5.3975,03/28.0/2023,2000,g 15.0,4.0
# From MPEC 2022-L66
C/2019 B1 (Africano),e,123.4117,290.3688,174.7698,137.8175,0.0006092,0.98840567,0.0000,03/18.6474/2019,2000,g 16.0,4.0
# From MPC115885
P/2019 B2 (Groeller),e,17.0109,175.7474,1.0094,3.914292,0.1272694,0.36044874,178.0879,03/28.0/2023,2000,g 14.5,4.0
# From MPEC 2022-YB4
C/2019 B3 (PANSTARRS),e,66.5380,358.4338,263.9657,429294,0.0000000,0.99998410,0.0000,01/20.3651/2021,2000,g  5.5,4.0
# From MPEC 2021-P47
C/2019 C1 (ATLAS),e,36.0506,212.3915,319.0777,646.5410,0.0000600,0.98982860,0.0000,05/04.3222/2020,2000,g 10.0,4.0
# From MPEC 2022-O08
C/2019 D1 (Flewelling),e,34.0102,231.6623,70.6820,142.4316,0.0005798,0.98886630,0.0000,05/11.1912/2019,2000,g 13.0,4.0
# From MPEC 2023-F81
C/2019 E3 (ATLAS),e,84.2972,347.2464,280.6836,43726,0.0000001,0.99976414,0.0000,11/14.9037/2023,2000,g  2.5,4.0
# From MPEC 2023-CD7
C/2019 F1 (ATLAS-Africano),h,06/23.0396/2021,54.2221,38.6704,251.2846,1.003168,3.601143,2000,5.5,4.0
# From MPEC 2021-P47
C/2019 F2 (ATLAS),e,19.2693,175.4614,11.6196,16.62756,0.0145365,0.86491971,18.8549,03/28.0/2023,2000,g 12.0,4.0
# From MPEC 2021-P47
A/2019 G2,e,159.2133,208.1593,82.6043,442.6603,0.0001058,0.99481853,0.0000,12/08.6063/2019,2000,g 16.5,2.0
# From MPEC 2022-VC5
A/2019 G3,e,156.8072,49.8934,161.9163,17.20714,0.0138083,0.83447034,21.7419,03/28.0/2023,2000,g 17.1,2.0
# From MPEC 2022-P82
C/2019 G4 (PANSTARRS),h,09/15.7685/2018,138.3537,130.4523,287.7690,1.001720,5.848827,2000,9.5,4.0
# From MPC114607
P/2019 GG21 (PANSTARRS),e,6.0861,340.5574,208.5985,7.469112,0.0482837,0.47187741,68.4618,03/28.0/2023,2000,g 12.0,4.0
# From MPEC 2022-M21
C/2019 H1 (NEOWISE),e,104.4598,269.2679,19.3400,247.4782,0.0002532,0.99254479,0.0000,04/27.9767/2019,2000,g 15.5,4.0
# From MPEC 2023-A50
C/2019 J1 (Lemmon),e,24.5409,98.1567,167.7454,68.47568,0.0017394,0.96371127,2.5224,03/28.0/2023,2000,g 12.0,4.0
# From MPEC 2021-R75
C/2019 J2 (Palomar),e,105.2336,25.5611,98.6943,161.9132,0.0004784,0.98936478,0.0000,07/20.3369/2019,2000,g 13.0,4.0
# From MPC117071
C/2019 J3 (ATLAS),h,08/02.4109/2019,131.3551,270.6013,16.6108,1.000650,2.371274,2000,13.5,4.0
# From MPEC 2022-M21
C/2019 JU6 (ATLAS),h,06/01.8556/2019,148.3315,21.7660,94.9999,1.000043,2.044578,2000,14.5,4.0
# From MPEC 2022-O08
C/2019 K1 (ATLAS),e,87.0577,73.3404,265.7230,13039,0.0000007,0.99984556,0.0000,02/12.7377/2020,2000,g 10.0,4.0
# From MPC119997
C/2019 K4 (Ye),e,105.2969,180.1479,139.8752,1371,0.0000194,0.99834580,0.0000,06/15.6378/2019,2000,g 12.5,4.0
# From MPEC 2021-P47
C/2019 K5 (Young),e,15.3185,177.1309,175.1355,167.9939,0.0004527,0.98784512,0.0000,06/23.0094/2019,2000,g 13.0,4.0
# From MPEC 2021-P47
C/2019 K6 (PANSTARRS),e,132.3815,42.9941,187.5921,1584,0.0000156,0.99752251,0.0000,05/20.0266/2020,2000,g 11.5,4.0
# From MPEC 2023-F81
C/2019 K7 (Smith),h,06/17.6013/2020,103.5330,307.9629,27.4016,1.000909,4.478294,2000,6.0,4.0
# From MPEC 2021-R75
C/2019 K8 (ATLAS),e,93.1452,291.0306,85.3807,2668,0.0000072,0.99880305,0.0000,07/21.7623/2019,2000,g 11.5,4.0
# From MPEC 2023-A50
C/2019 L1 (PANSTARRS),e,9.9802,254.4301,50.0512,9.841155,0.0319253,0.70541197,42.3107,03/28.0/2023,2000,g 13.5,4.0
# From MPC115886
C/2019 L2 (NEOWISE),e,152.2111,12.5480,18.8393,25.02321,0.0078739,0.93502056,11.4650,03/28.0/2023,2000,g 16.0,4.0
# From MPEC 2023-CD7
P/2019 LD2 (ATLAS),e,11.6209,179.5887,120.1656,5.221887,0.0825967,0.12663273,92.1179,03/28.0/2023,2000,g  8.5,4.0
# From MPEC 2023-F81
C/2019 L3 (ATLAS),h,01/09.6599/2022,48.3501,290.7781,171.6199,1.002085,3.554446,2000,4.5,4.0
# From MPC118095
C/2019 LB7 (Kleyna),e,164.2916,3.8869,336.5657,34.66790,0.0048285,0.92814628,7.0628,03/28.0/2023,2000,g 17.0,4.0
# From MPEC 2022-O08
P/2019 M2 (ATLAS),e,12.2713,307.6159,332.5538,3.028763,0.1869847,0.64743764,257.1330,03/28.0/2023,2000,g 21.2,4.0
# From MPC118095
C/2019 M3 (ATLAS),e,99.5117,154.9284,87.8931,7343,0.0000016,0.99967019,0.0000,12/31.9980/2018,2000,g 12.2,4.0
# From MPEC 2023-C45
C/2019 N1 (ATLAS),e,82.4309,13.5726,193.4203,1737,0.0000136,0.99901794,0.0000,12/01.3551/2020,2000,g  7.5,4.0
# From MPEC 2023-CD8
A/2019 N2,e,89.3895,276.1170,347.1971,1656,0.0000146,0.99882350,0.0000,08/22.7676/2019,2000,g 12.5,2.0
# From MPEC 2022-A21
C/2019 NJ3 (Lemmon),h,10/22.9218/2020,99.4203,142.4689,246.9104,1.002459,4.362793,2000,9.0,4.0
# From MPEC 2023-F81
A/2019 O2,e,93.3071,48.2631,129.6403,57.87552,0.0022385,0.83269620,359.9771,03/28.0/2023,2000,g  9.5,2.0
# From MPEC 2023-E68
C/2019 O3 (Palomar),h,03/09.5635/2021,89.8190,300.4183,60.1275,1.004369,8.820939,2000,3.5,4.0
# From MPEC 2021-P47
A/2019 O4,e,115.0907,354.9093,61.9033,33.27817,0.0051341,0.89043211,5.8589,03/28.0/2023,2000,g 15.5,2.0
# From MPEC 2023-A50
C/2019 Q1 (Lemmon),h,07/20.6822/2020,155.7291,42.4608,56.1907,1.000694,5.002672,2000,8.5,4.0
# From MPC117072
A/2019 Q2,e,159.0299,188.0092,176.3875,57.83296,0.0022410,0.97816659,0.0000,07/22.0899/2019,2000,g 18.0,2.0
# From MPC117072
C/2019 Q3 (PANSTARRS),h,08/21.3891/2018,65.5380,151.3383,152.7939,1.002600,7.265960,2000,8.5,4.0
# From MPC117072
P/2019 S2 (PANSTARRS),e,10.4661,93.1393,217.1564,4.742651,0.0954272,0.20574513,142.6663,03/28.0/2023,2000,g 13.5,4.0
# From MPEC 2022-CN4
P/2019 S3 (PANSTARRS),e,8.6931,150.1526,213.0527,3.415384,0.1561510,0.47119448,204.3743,03/28.0/2023,2000,g 18.3,4.0
# From MPEC 2021-S45
C/2019 S4 (Lemmon),e,92.0791,63.1487,71.3762,233.9746,0.0002754,0.98528699,0.0000,04/08.0448/2020,2000,g 11.0,4.0
# From MPEC 2023-BF4
A/2019 T1,e,120.8762,6.9448,91.0727,38.73814,0.0040879,0.88947347,3.2793,03/28.0/2023,2000,g 13.0,2.0
# From MPEC 2023-BF4
C/2019 T2 (Lemmon),e,111.4758,155.6494,239.4309,3922,0.0000040,0.99932533,0.0000,04/22.5214/2021,2000,g  9.0,4.0
# From MPEC 2022-WQ9
C/2019 T3 (ATLAS),e,121.8458,139.5318,112.4472,3303,0.0000052,0.99819788,0.0000,03/04.2331/2021,2000,g  6.8,4.0
# From MPEC 2023-F81
C/2019 T4 (ATLAS),e,53.6320,199.9392,351.1733,961.9369,0.0000330,0.99559011,0.0000,06/08.9641/2022,2000,g  5.0,4.0
# From MPEC 2021-P47
P/2019 T5 (ATLAS),e,33.4869,247.6263,189.5655,7.997152,0.0435814,0.80951745,58.1469,03/28.0/2023,2000,g 15.0,4.0
# From MPEC 2021-P47
P/2019 T6 (PANSTARRS),e,18.7017,71.2244,328.9941,5.437623,0.0777303,0.62305818,96.0325,03/28.0/2023,2000,g 15.5,4.0
# From MPC118096
P/2019 U4 (PANSTARRS),e,11.7006,200.0007,181.0269,3.520207,0.1492285,0.47601248,191.8317,03/28.0/2023,2000,g 19.0,4.0
# From MPEC 2023-F81
C/2019 U5 (PANSTARRS),h,03/29.8423/2023,113.5201,2.6374,181.4954,1.001465,3.624202,2000,4.5,4.0
# From MPEC 2022-H04
C/2019 U6 (Lemmon),e,60.9792,235.7585,329.5791,341.9765,0.0001559,0.99732886,0.0000,06/18.4448/2020,2000,g 10.0,4.0
# From MPEC 2022-N37
C/2019 V1 (Borisov),e,61.9044,83.1686,51.1628,1515,0.0000167,0.99795761,0.0000,07/16.4154/2020,2000,g 11.0,4.0
# From MPEC 2022-L66
P/2019 V2 (Groeller),e,11.8083,189.1853,335.7655,7.500047,0.0479853,0.33112030,42.7783,03/28.0/2023,2000,g 10.0,4.0
# From MPEC 2023-A50
P/2019 W1 (PANSTARRS),e,23.4749,35.3767,18.7210,4.549196,0.1015786,0.26707905,144.1398,03/28.0/2023,2000,g 12.9,4.0
# From MPEC 2021-P47
P/2019 X1 (Pruyne),e,10.2500,43.6649,36.8015,6.174037,0.0642466,0.30361859,86.4126,03/28.0/2023,2000,g 10.4,4.0
# From MPC119999
C/2019 Y1 (ATLAS),e,73.3557,31.5555,57.9155,86.43476,0.0012265,0.99040688,0.0000,03/15.9846/2020,2000,g 13.7,4.0
# From MPEC 2022-YN2
C/2019 Y4 (ATLAS),e,45.2383,120.6498,177.4536,354.6771,0.0001476,0.99928111,0.0000,05/30.9060/2020,2000,g 11.8,6.0
# From MPEC 2020-L06
C/2019 Y4-A (ATLAS),h,05/30.9327/2020,45.6813,121.0109,177.2874,1.001420,0.253127,2000,11.6,6.0
# From MPEC 2020-L06
C/2019 Y4-B (ATLAS),e,45.3173,120.7053,177.4203,1509,0.0000168,0.99983120,0.0000,05/30.9086/2020,2000,g 12.8,6.0
# From MPEC 2020-L06
C/2019 Y4-C (ATLAS),h,05/30.8874/2020,45.4637,120.7373,177.3208,1.002143,0.254194,2000,12.7,6.0
# From MPEC 2020-L06
C/2019 Y4-D (ATLAS),e,45.5080,121.1124,177.4586,68.45550,0.0017402,0.99629641,0.0000,05/31.0115/2020,2000,g 12.5,6.0
# From MPEC 2023-A50
C/2019 Y5 (PANSTARRS),e,82.7705,51.7583,303.5565,761.6759,0.0000469,0.99354137,0.0000,08/17.9915/2019,2000,g 11.0,4.0
# From MPEC 2023-A50
A/2020 A1,e,149.0379,119.2106,302.5219,25.67537,0.0075758,0.93508656,9.1790,03/28.0/2023,2000,g 18.0,2.0
# From MPEC 2022-YN2
